[{"OBJECT_NAME":"STARLINK-4672","OBJECT_ID":"2022-104E","EPOCH":"2025-10-16T02:13:45.420384","MEAN_MOTION":15.08838203,"ECCENTRICITY":0.0001175,"INCLINATION":53.2142,"RA_OF_ASC_NODE":173.3809,"ARG_OF_PERICENTER":91.7174,"MEAN_ANOMALY":268.3952,"EPHEMERIS_TYPE":0,"CLASSIFICATION_TYPE":"U","NORAD_CAT_ID":53592,"ELEMENT_SET_NO":999,"REV_AT_EPOCH":17411,"BSTAR":4.7379e-5,"MEAN_MOTION_DOT":4.66e-6,"MEAN_MOTION_DDOT":0},{"OBJECT_NAME":"STARLINK-4681","OBJECT_ID":"2022-104G","EPOCH":"2025-10-16T01:51:07.556256","MEAN_MOTION":15.08857233,"ECCENTRICITY":0.0001399,"INCLINATION":53.2159,"RA_OF_ASC_NODE":173.2886,"ARG_OF_PERICENTER":81.4238,"MEAN_ANOMALY":278.6912,"EPHEMERIS_TYPE":0,"CLASSIFICATION_TYPE":"U","NORAD_CAT_ID":53594,"ELEMENT_SET_NO":999,"REV_AT_EPOCH":17425,"BSTAR":0.00012724,"MEAN_MOTION_DOT":1.739e-5,"MEAN_MOTION_DDOT":0},{"OBJECT_NAME":"STARLINK-4684","OBJECT_ID":"2022-104H","EPOCH":"2025-10-15T22:45:40.735296","MEAN_MOTION":15.08844118,"ECCENTRICITY":0.0001457,"INCLINATION":53.2156,"RA_OF_ASC_NODE":173.9036,"ARG_OF_PERICENTER":88.6075,"MEAN_ANOMALY":271.5084,"EPHEMERIS_TYPE":0,"CLASSIFICATION_TYPE":"U","NORAD_CAT_ID":53595,"ELEMENT_SET_NO":999,"REV_AT_EPOCH":17409,"BSTAR":0.00015341,"MEAN_MOTION_DOT":2.155e-5,"MEAN_MOTION_DDOT":0},{"OBJECT_NAME":"STARLINK-4676","OBJECT_ID":"2022-104L","EPOCH":"2025-10-15T23:43:56.322912","MEAN_MOTION":15.08836024,"ECCENTRICITY":0.0001479,"INCLINATION":53.2135,"RA_OF_ASC_NODE":173.4459,"ARG_OF_PERICENTER":97.1855,"MEAN_ANOMALY":262.9305,"EPHEMERIS_TYPE":0,"CLASSIFICATION_TYPE":"U","NORAD_CAT_ID":53598,"ELEMENT_SET_NO":999,"REV_AT_EPOCH":17377,"BSTAR":9.8139e-5,"MEAN_MOTION_DOT":1.274e-5,"MEAN_MOTION_DDOT":0},{"OBJECT_NAME":"STARLINK-4677","OBJECT_ID":"2022-104N","EPOCH":"2025-10-16T01:15:29.387808","MEAN_MOTION":15.08886705,"ECCENTRICITY":0.0001448,"INCLINATION":53.2166,"RA_OF_ASC_NODE":173.8226,"ARG_OF_PERICENTER":108.2928,"MEAN_ANOMALY":251.8222,"EPHEMERIS_TYPE":0,"CLASSIFICATION_TYPE":"U","NORAD_CAT_ID":53600,"ELEMENT_SET_NO":999,"REV_AT_EPOCH":17377,"BSTAR":-0.00066173,"MEAN_MOTION_DOT":-0.00010818,"MEAN_MOTION_DDOT":0},{"OBJECT_NAME":"STARLINK-4675","OBJECT_ID":"2022-104P","EPOCH":"2025-10-16T01:35:14.345664","MEAN_MOTION":15.08838406,"ECCENTRICITY":0.000138,"INCLINATION":53.2171,"RA_OF_ASC_NODE":173.2175,"ARG_OF_PERICENTER":84.2864,"MEAN_ANOMALY":275.8285,"EPHEMERIS_TYPE":0,"CLASSIFICATION_TYPE":"U","NORAD_CAT_ID":53601,"ELEMENT_SET_NO":999,"REV_AT_EPOCH":17378,"BSTAR":6.9792e-5,"MEAN_MOTION_DOT":8.23e-6,"MEAN_MOTION_DDOT":0},{"OBJECT_NAME":"STARLINK-4648","OBJECT_ID":"2022-104Q","EPOCH":"2025-10-16T01:43:51.608640","MEAN_MOTION":15.08842362,"ECCENTRICITY":9.25e-5,"INCLINATION":53.2146,"RA_OF_ASC_NODE":168.2758,"ARG_OF_PERICENTER":82.5464,"MEAN_ANOMALY":277.5633,"EPHEMERIS_TYPE":0,"CLASSIFICATION_TYPE":"U","NORAD_CAT_ID":53602,"ELEMENT_SET_NO":999,"REV_AT_EPOCH":17385,"BSTAR":-0.0001628,"MEAN_MOTION_DOT":-2.878e-5,"MEAN_MOTION_DDOT":0},{"OBJECT_NAME":"STARLINK-4692","OBJECT_ID":"2022-104R","EPOCH":"2025-10-15T23:04:55.466112","MEAN_MOTION":15.08842693,"ECCENTRICITY":0.0001341,"INCLINATION":53.2112,"RA_OF_ASC_NODE":169.0017,"ARG_OF_PERICENTER":91.6965,"MEAN_ANOMALY":268.4181,"EPHEMERIS_TYPE":0,"CLASSIFICATION_TYPE":"U","NORAD_CAT_ID":53603,"ELEMENT_SET_NO":999,"REV_AT_EPOCH":17383,"BSTAR":0.0002462,"MEAN_MOTION_DOT":3.633e-5,"MEAN_MOTION_DDOT":0},{"OBJECT_NAME":"STARLINK-4690","OBJECT_ID":"2022-104S","EPOCH":"2025-10-16T01:33:14.769792","MEAN_MOTION":15.08839713,"ECCENTRICITY":0.0001332,"INCLINATION":53.2185,"RA_OF_ASC_NODE":168.2257,"ARG_OF_PERICENTER":75.7223,"MEAN_ANOMALY":284.3917,"EPHEMERIS_TYPE":0,"CLASSIFICATION_TYPE":"U","NORAD_CAT_ID":53604,"ELEMENT_SET_NO":999,"REV_AT_EPOCH":17385,"BSTAR":0.00011589,"MEAN_MOTION_DOT":1.557e-5,"MEAN_MOTION_DDOT":0},{"OBJECT_NAME":"STARLINK-4693","OBJECT_ID":"2022-104T","EPOCH":"2025-10-16T02:59:58.653024","MEAN_MOTION":15.08858152,"ECCENTRICITY":0.000126,"INCLINATION":53.2143,"RA_OF_ASC_NODE":172.8691,"ARG_OF_PERICENTER":78.6432,"MEAN_ANOMALY":281.4701,"EPHEMERIS_TYPE":0,"CLASSIFICATION_TYPE":"U","NORAD_CAT_ID":53605,"ELEMENT_SET_NO":999,"REV_AT_EPOCH":17379,"BSTAR":0.00020563,"MEAN_MOTION_DOT":2.988e-5,"MEAN_MOTION_DDOT":0},{"OBJECT_NAME":"STARLINK-4590","OBJECT_ID":"2022-104U","EPOCH":"2025-10-16T02:08:24.510048","MEAN_MOTION":15.08831444,"ECCENTRICITY":0.000154,"INCLINATION":53.2151,"RA_OF_ASC_NODE":163.3711,"ARG_OF_PERICENTER":97.131,"MEAN_ANOMALY":262.9857,"EPHEMERIS_TYPE":0,"CLASSIFICATION_TYPE":"U","NORAD_CAT_ID":53606,"ELEMENT_SET_NO":999,"REV_AT_EPOCH":17380,"BSTAR":6.4004e-5,"MEAN_MOTION_DOT":7.31e-6,"MEAN_MOTION_DDOT":0},{"OBJECT_NAME":"STARLINK-4591","OBJECT_ID":"2022-104V","EPOCH":"2025-10-16T01:59:46.569696","MEAN_MOTION":15.08841223,"ECCENTRICITY":0.0001429,"INCLINATION":53.2138,"RA_OF_ASC_NODE":168.337,"ARG_OF_PERICENTER":93.1118,"MEAN_ANOMALY":267.0038,"EPHEMERIS_TYPE":0,"CLASSIFICATION_TYPE":"U","NORAD_CAT_ID":53607,"ELEMENT_SET_NO":999,"REV_AT_EPOCH":17385,"BSTAR":4.7501e-5,"MEAN_MOTION_DOT":4.68e-6,"MEAN_MOTION_DDOT":0},{"OBJECT_NAME":"STARLINK-4647","OBJECT_ID":"2022-104W","EPOCH":"2025-10-16T02:19:00.833952","MEAN_MOTION":15.08837866,"ECCENTRICITY":0.0001292,"INCLINATION":53.2147,"RA_OF_ASC_NODE":163.416,"ARG_OF_PERICENTER":91.0632,"MEAN_ANOMALY":269.0508,"EPHEMERIS_TYPE":0,"CLASSIFICATION_TYPE":"U","NORAD_CAT_ID":53608,"ELEMENT_SET_NO":999,"REV_AT_EPOCH":17380,"BSTAR":6.9098e-5,"MEAN_MOTION_DOT":8.12e-6,"MEAN_MOTION_DDOT":0},{"OBJECT_NAME":"STARLINK-4660","OBJECT_ID":"2022-104X","EPOCH":"2025-10-16T01:12:01.524096","MEAN_MOTION":15.08837108,"ECCENTRICITY":0.0001337,"INCLINATION":53.2167,"RA_OF_ASC_NODE":168.1345,"ARG_OF_PERICENTER":89.2162,"MEAN_ANOMALY":270.8983,"EPHEMERIS_TYPE":0,"CLASSIFICATION_TYPE":"U","NORAD_CAT_ID":53609,"ELEMENT_SET_NO":999,"REV_AT_EPOCH":17385,"BSTAR":9.1598e-5,"MEAN_MOTION_DOT":1.17e-5,"MEAN_MOTION_DDOT":0},{"OBJECT_NAME":"STARLINK-4610","OBJECT_ID":"2022-104Y","EPOCH":"2025-10-15T22:59:00.218688","MEAN_MOTION":15.08845665,"ECCENTRICITY":0.0001232,"INCLINATION":53.213,"RA_OF_ASC_NODE":163.9718,"ARG_OF_PERICENTER":93.555,"MEAN_ANOMALY":266.5583,"EPHEMERIS_TYPE":0,"CLASSIFICATION_TYPE":"U","NORAD_CAT_ID":53610,"ELEMENT_SET_NO":999,"REV_AT_EPOCH":17378,"BSTAR":0.00011967,"MEAN_MOTION_DOT":1.618e-5,"MEAN_MOTION_DDOT":0},{"OBJECT_NAME":"STARLINK-4658","OBJECT_ID":"2022-104AA","EPOCH":"2025-10-16T02:03:05.099616","MEAN_MOTION":15.08844713,"ECCENTRICITY":0.0001449,"INCLINATION":53.2158,"RA_OF_ASC_NODE":163.3478,"ARG_OF_PERICENTER":87.4128,"MEAN_ANOMALY":272.703,"EPHEMERIS_TYPE":0,"CLASSIFICATION_TYPE":"U","NORAD_CAT_ID":53612,"ELEMENT_SET_NO":999,"REV_AT_EPOCH":17380,"BSTAR":0.00014276,"MEAN_MOTION_DOT":1.985e-5,"MEAN_MOTION_DDOT":0},{"OBJECT_NAME":"STARLINK-4655","OBJECT_ID":"2022-104AB","EPOCH":"2025-10-16T00:38:20.688576","MEAN_MOTION":15.08834449,"ECCENTRICITY":0.0001125,"INCLINATION":53.2167,"RA_OF_ASC_NODE":163.6891,"ARG_OF_PERICENTER":87.8926,"MEAN_ANOMALY":272.2195,"EPHEMERIS_TYPE":0,"CLASSIFICATION_TYPE":"U","NORAD_CAT_ID":53613,"ELEMENT_SET_NO":999,"REV_AT_EPOCH":17379,"BSTAR":0.00030518,"MEAN_MOTION_DOT":4.572e-5,"MEAN_MOTION_DDOT":0}]
