STARLINK-4672           
1 53592U 22104E   25289.09288681  .00000466  00000+0  47379-4 0  9990
2 53592  53.2142 173.3809 0001175  91.7174 268.3952 15.08838203174114
STARLINK-4681           
1 53594U 22104G   25289.07717079  .00001739  00000+0  12724-3 0  9997
2 53594  53.2159 173.2886 0001399  81.4238 278.6912 15.08857233174252
STARLINK-4684           
1 53595U 22104H   25288.94838814  .00002155  00000+0  15341-3 0  9995
2 53595  53.2156 173.9036 0001457  88.6075 271.5084 15.08844118174099
STARLINK-4676           
1 53598U 22104L   25288.98884633  .00001274  00000+0  98139-4 0  9990
2 53598  53.2135 173.4459 0001479  97.1855 262.9305 15.08836024173779
STARLINK-4677           
1 53600U 22104N   25289.05242347 -.00010818  00000+0 -66173-3 0  9991
2 53600  53.2166 173.8226 0001448 108.2928 251.8222 15.08886705173770
STARLINK-4675           
1 53601U 22104P   25289.06613826  .00000823  00000+0  69792-4 0  9991
2 53601  53.2171 173.2175 0001380  84.2864 275.8285 15.08838406173782
STARLINK-4648           
1 53602U 22104Q   25289.07212510 -.00002878  00000+0 -16280-3 0  9995
2 53602  53.2146 168.2758 0000925  82.5464 277.5633 15.08842362173857
STARLINK-4692           
1 53603U 22104R   25288.96175308  .00003633  00000+0  24620-3 0  9991
2 53603  53.2112 169.0017 0001341  91.6965 268.4181 15.08842693173830
STARLINK-4690           
1 53604U 22104S   25289.06475428  .00001557  00000+0  11589-3 0  9993
2 53604  53.2185 168.2257 0001332  75.7223 284.3917 15.08839713173853
STARLINK-4693           
1 53605U 22104T   25289.12498441  .00002988  00000+0  20563-3 0  9992
2 53605  53.2143 172.8691 0001260  78.6432 281.4701 15.08858152173795
STARLINK-4590           
1 53606U 22104U   25289.08917257  .00000731  00000+0  64004-4 0  9992
2 53606  53.2151 163.3711 0001540  97.1310 262.9857 15.08831444173808
STARLINK-4591           
1 53607U 22104V   25289.08317789  .00000468  00000+0  47501-4 0  9997
2 53607  53.2138 168.3370 0001429  93.1118 267.0038 15.08841223173856
STARLINK-4647           
1 53608U 22104W   25289.09653743  .00000812  00000+0  69098-4 0  9990
2 53608  53.2147 163.4160 0001292  91.0632 269.0508 15.08837866173803
STARLINK-4660           
1 53609U 22104X   25289.05001764  .00001170  00000+0  91598-4 0  9995
2 53609  53.2167 168.1345 0001337  89.2162 270.8983 15.08837108173851
STARLINK-4610           
1 53610U 22104Y   25288.95764142  .00001618  00000+0  11967-3 0  9999
2 53610  53.2130 163.9718 0001232  93.5550 266.5583 15.08845665173780
STARLINK-4658           
1 53612U 22104AA  25289.08547569  .00001985  00000+0  14276-3 0  9991
2 53612  53.2158 163.3478 0001449  87.4128 272.7030 15.08844713173804
STARLINK-4655           
1 53613U 22104AB  25289.02662834  .00004572  00000+0  30518-3 0  9991
2 53613  53.2167 163.6891 0001125  87.8926 272.2195 15.08834449173798
